{
  "norad_id": 65313,
  "name": "HULIANWANG DIGUI-81",
  "history": [
    {
      "epoch": "2026-03-28T21:53:49.644960",
      "apogee_km": 1149.9845039263328,
      "perigee_km": 1148.6524454055352,
      "latitude_deg": -46.21565666388765,
      "longitude_deg": 78.8884944000747,
      "semi_major_axis_km": 7527.455474665933,
      "eccentricity": 8.848e-05,
      "inclination_deg": 50.0055,
      "raan_deg": 133.7384,
      "arg_perigee_deg": 228.2731,
      "mean_anomaly_deg": 131.8066,
      "mean_motion_rev_day": 13.29322847
    },
    {
      "epoch": "2026-03-29T05:06:51.726816",
      "apogee_km": 1149.985365691401,
      "perigee_km": 1148.6515005886495,
      "latitude_deg": -23.575277710123974,
      "longitude_deg": 107.75747423991561,
      "semi_major_axis_km": 7527.455433140025,
      "eccentricity": 8.86e-05,
      "inclination_deg": 50.0055,
      "raan_deg": 132.6599,
      "arg_perigee_deg": 229.1153,
      "mean_anomaly_deg": 130.9643,
      "mean_motion_rev_day": 13.29322858
    }
  ]
}